SENTINEL-6              
1 46984U 20086A   24213.96917144 -.00000068  00000+0 -31433-4 0  9993
2 46984  66.0416 118.2601 0007816 269.9161  90.0959 12.80930115172564
